[{"OBJECT_NAME":"OBJECT B","OBJECT_ID":"2024-203B","EPOCH":"2026-03-09T23:52:52.928256","MEAN_MOTION":15.27506959,"ECCENTRICITY":0.00103904,"INCLINATION":97.4268,"RA_OF_ASC_NODE":139.5887,"ARG_OF_PERICENTER":321.1475,"MEAN_ANOMALY":38.9016,"EPHEMERIS_TYPE":0,"CLASSIFICATION_TYPE":"U","NORAD_CAT_ID":61870,"ELEMENT_SET_NO":999,"REV_AT_EPOCH":7381,"BSTAR":0.00063263842,"MEAN_MOTION_DOT":0.00016997,"MEAN_MOTION_DDOT":0},{"OBJECT_NAME":"STARLINK-32889","OBJECT_ID":"2025-029P","EPOCH":"2026-03-09T21:18:21.855744","MEAN_MOTION":15.30206698,"ECCENTRICITY":4.707e-5,"INCLINATION":53.1584,"RA_OF_ASC_NODE":231.8424,"ARG_OF_PERICENTER":120.7496,"MEAN_ANOMALY":239.3551,"EPHEMERIS_TYPE":0,"CLASSIFICATION_TYPE":"U","NORAD_CAT_ID":62961,"ELEMENT_SET_NO":999,"REV_AT_EPOCH":6134,"BSTAR":0.0010761259,"MEAN_MOTION_DOT":0.00031655,"MEAN_MOTION_DDOT":0}]
